{
  "norad_id": 64839,
  "name": "KUIPER-00094",
  "history": [
    {
      "epoch": "2026-03-28T15:27:31.692384",
      "apogee_km": 557.3180537492908,
      "perigee_km": 548.4865234877325,
      "latitude_deg": 36.72727526638052,
      "longitude_deg": 5.735213759820908,
      "semi_major_axis_km": 6931.039288618511,
      "eccentricity": 0.0006371,
      "inclination_deg": 51.8882,
      "raan_deg": 175.2539,
      "arg_perigee_deg": 2.4075,
      "mean_anomaly_deg": 357.6928,
      "mean_motion_rev_day": 15.04545136
    }
  ]
}