{"fetched_at":"2026-03-30T06:02:59Z","count":15439,"tles":[{"name":"KUIPER-00094","line1":"1 64839U 25151Z   26087.64411681  .00010292  00000+0  74411-3 0  9991","line2":"2 64839  51.8882 175.2539 0006371   2.4075 357.6928 15.04545136 38691","category":"Other"}]}